UNKNOWN                 
1 87771U          26076.38966021  .00000082  00000+0  31015-3 0  9998
2 87771 100.7431 279.6077 0119592 147.4701 213.3854 13.19544690547573
UNKNOWN                 
1 87782U          26076.45046715  .00003232  00000+0  10669-1 0  9997
2 87782 102.3742 325.6807 0060912  20.9886 339.3691 13.00999493580302
UNKNOWN                 
1 87843U          26067.54765242  .00002283  00000+0  51608-2 0  9992
2 87843  99.6563 179.4810 0246927 164.5334 196.3503 13.16964650575450
UNKNOWN                 
1 87845U          26077.07505984  .00003078  00000+0  56896-2 0  9995
2 87845  98.8685  20.9373 0580115  34.1966 329.5119 12.89345795577496
UNKNOWN                 
1 87878U          26076.61461052  .00002338  00000+0  72957-3 0  9992
2 87878  99.1613 207.8406 0033611 348.1043  11.9347 14.41562618624963
UNKNOWN                 
1 87884U          26076.00784555  .00000612  00000+0  35768-3 0  9990
2 87884  98.7316 181.5472 0154469 162.6702 197.9823 14.06058330631618
UNKNOWN                 
1 87991U          26076.11263670  .00000316  00000+0  49492-3 0  9991
2 87991  28.6244 223.4917 0896885 322.2033  31.8668 12.35740992534678
UNKNOWN                 
1 88780U 25241B   26077.34904538  .00007719  00000+0  34197-3 0  9993
2 88780  51.6338  31.6789 0004498 184.8105 175.2830 15.22540270  1066
UNKNOWN                 
1 89005U          26077.31036198  .00002465  00000+0  55740-3 0  9995
2 89005  97.8425 264.3481 0190840  97.3125 264.9802 14.46347771547906
UNKNOWN                 
1 89029U          26077.54070855  .00004600  00000+0  41598-3 0  9993
2 89029  98.0444 344.2809 0022458  11.6447 348.5288 14.95775814665391
UNKNOWN                 
1 89101U          26076.08031723 -.00000373  00000+0 -97867-3 0  9998
2 89101 100.4728  14.8267 0146493 257.9915 100.4739 13.04035932567143
UNKNOWN                 
1 89132U          26076.86747068  .00001374  00000+0  18361-2 0  9995
2 89132  63.4401 299.7821 2926246 319.7027  21.9485  8.88010230333559
